ONEWEB-0624             
1 55165U 23004AB  23242.91667824  .00000015  00000+0  00000+0 0  9991
2 55165  87.6611 193.8810 0002745 350.7898 350.2147 13.55380706 34031
ONEWEB-0625             
1 55166U 23004AC  23242.30962904  .00000111  00000+0  20742-3 0  9998
2 55166  87.9578 208.9510 0002663  89.3197 270.8248 13.30723467 32987
ONEWEB-0626             
1 55167U 23004AD  23241.94671615  .00000017  00000+0  72194-5 0  9999
2 55167  87.9713 208.9883 0002640  96.3101 263.8339 13.30956344 32941
ONEWEB-0627             
1 55168U 23004AE  23242.64892018  .00000014  00000+0  85578-6 0  9998
2 55168  87.9574 208.8898 0002456  60.0271 300.1112 13.30818649 33033
ONEWEB-0628             
1 55169U 23004AF  23242.91667824  .00000014  00000+0  00000+0 0  9994
2 55169  87.6573 193.9394 0005931 185.6346 226.4687 13.49506225 34024
ONEWEB-0629             
1 55170U 23004AG  23242.31032813  .00000061  00000+0  10110-3 0  9993
2 55170  87.9724 208.9164 0002532 110.2517 249.8894 13.30970290 32997
ONEWEB-0631             
1 55171U 23004AH  23241.96401566  .00001358  00000+0  24326-3 0  9993
2 55171  86.6346 189.0529 0002528 120.9097 239.2366 14.66114349 34213
ONEWEB-0709             
1 55172U 23004AJ  23241.52176831  .00000504  00000+0  13854-2 0  9995
2 55172  87.8925 224.2281 0003050  75.7086 284.4381 13.11421549 31839
